OBJECT_NAME,OBJECT_ID,EPOCH,MEAN_MOTION,ECCENTRICITY,INCLINATION,RA_OF_ASC_NODE,ARG_OF_PERICENTER,MEAN_ANOMALY,EPHEMERIS_TYPE,CLASSIFICATION_TYPE,NORAD_CAT_ID,ELEMENT_SET_NO,REV_AT_EPOCH,BSTAR,MEAN_MOTION_DOT,MEAN_MOTION_DDOT
CE-SAT-IE,2024-032A,2024-03-15T03:33:11.567520,14.66601106,0.0003285,98.1143,132.2651,150.6703,209.4686,0,U,58987,999,397,0.00012874,6.67e-06,0
2024-032B,2024-032B,2024-02-21T10:15:45.408096,14.66967822,0.0001717,98.12,109.7876,268.0294,92.0713,0,U,58988,999,64,0.0025736,0.00014389,0
2024-032C,2024-032C,2024-03-15T04:37:22.555488,14.67909034,0.0004481,98.1104,132.348,243.9107,116.1637,0,U,58989,999,398,0.00030688,1.707e-05,0
INSAT-3DS,2024-033A,2024-03-14T18:09:59.999616,1.00271132,0.0010373,0.0971,88.7015,355.3499,84.2986,0,U,58990,999,2,0,-1.75e-06,0
GSLV R/B,2024-033B,2024-03-14T21:28:56.032608,2.14580176,0.7426472,19.269,263.456,195.8652,112.8353,0,U,58991,999,56,0.00079642,0.00039297,3.5843e-07
ADRAS-J,2024-034A,2024-03-15T04:29:27.703680,14.99395891,0.0051076,98.2035,44.0528,4.5229,355.6443,0,U,58992,999,383,0.00059528,7.423e-05,0
ELECTRON KICK STAGE R/B,2024-034B,2024-03-14T21:38:30.820704,15.02082455,0.0044793,98.209,43.8221,2.7194,357.4264,0,U,58993,999,379,0.0011295,0.00015111,0
MERAH PUTIH 2,2024-035A,2024-03-14T21:43:58.784736,1.00274152,4.68e-05,0.0447,331.4733,7.8868,272.5538,0,U,58995,999,32,0,-3.69e-06,0
FALCON 9 R/B,2024-035B,2024-03-14T12:28:20.341632,1.38531105,0.8031735,20.5638,285.1843,187.6308,139.1029,0,U,58996,999,30,0.0013356,6.26e-06,0
AAC-AIS-SAT3,2023-174DJ,2024-03-14T18:50:02.717952,14.73647825,0.0008645,97.727,148.4844,128.3024,231.8964,0,U,58997,999,1922,0.00037953,2.429e-05,0
STARLINK-31468,2024-036A,2024-03-14T20:17:43.691712,15.34757299,0.0001662,53.1593,203.7444,142.1637,217.9483,0,U,58998,999,437,-0.034889,-0.01092223,0
STARLINK-31440,2024-036B,2024-03-15T04:00:00.999936,15.32434484,0.0001593,53.1594,202.2418,114.7968,220.1677,0,U,58999,999,415,-0.076382,-0.02175736,0
STARLINK-31529,2024-036C,2024-03-14T22:00:00.999936,15.35458518,0.0001205,53.1589,203.3795,65.5749,343.768,0,U,59000,999,438,-0.070552,-0.02209526,0
STARLINK-31525,2024-036D,2024-03-12T22:00:00.999936,15.44277784,0.000116,53.1596,212.8068,94.7758,21.4747,0,U,59001,999,408,-0.032056,-0.01347053,0
STARLINK-31431,2024-036E,2024-03-14T22:45:09.986400,15.43487469,0.0001286,53.1607,202.9614,109.5496,250.565,0,U,59002,999,440,-0.0054562,-0.00241076,0
STARLINK-31429,2024-036F,2024-03-13T06:00:00.999648,15.44169118,0.0001266,53.1594,211.2161,108.7297,65.0461,0,U,59003,999,420,-0.021879,-0.0093463,0
STARLINK-31435,2024-036G,2024-03-15T04:00:00.999936,15.37877502,7.75e-05,53.1595,202.1502,93.6913,287.0343,0,U,59004,999,443,-0.06423,-0.02179401,0
STARLINK-31484,2024-036H,2024-03-15T04:00:00.999936,15.37870681,6.28e-05,53.1595,202.1463,87.2813,295.3287,0,U,59005,999,448,-0.064244,-0.02179318,0
STARLINK-31450,2024-036J,2024-03-15T04:00:00.999936,15.39684765,8.89e-05,53.1596,202.1243,96.5345,296.941,0,U,59006,999,442,-0.060655,-0.02184073,0
STARLINK-31456,2024-036K,2024-03-14T20:00:01.000224,15.41261694,9.38e-05,53.1595,203.7032,65.8227,276.1431,0,U,59007,999,437,-0.057167,-0.0213332,0
STARLINK-31460,2024-036L,2024-03-14T22:45:50.636736,15.4382721,0.0001371,53.1606,202.9629,76.8451,283.2709,0,U,59008,999,440,0.0021958,0.00101996,0
STARLINK-31488,2024-036M,2024-03-14T22:00:00.999936,15.42540573,0.0001192,53.1594,203.2916,86.7743,6.4965,0,U,59009,999,444,-0.051187,-0.02009755,0
STARLINK-31528,2024-036N,2024-03-15T04:00:00.999936,15.433166,0.0001201,53.1597,202.0957,84.7664,322.9135,0,U,59010,999,442,-0.054105,-0.02160914,0
STARLINK-31491,2024-036P,2024-03-15T04:00:00.999936,15.43327433,0.0001321,53.1597,202.1001,84.7959,320.9836,0,U,59011,999,442,-0.054771,-0.02224674,0
STARLINK-31465,2024-036Q,2024-03-15T04:00:00.999936,15.44194708,0.0001214,53.1598,202.0924,74.9683,334.6727,0,U,59012,999,442,-0.022174,-0.00946944,0
STARLINK-31389,2024-036R,2024-03-15T04:00:00.999936,15.44182959,9.52e-05,53.16,202.0883,75.2267,336.336,0,U,59013,999,447,-0.021784,-0.00931243,0
STARLINK-31454,2024-036S,2024-03-14T22:00:00.999936,15.43868332,0.0001367,53.1595,203.2713,76.25,27.0257,0,U,59014,999,444,-0.00017891,-8.657e-05,0
STARLINK-31521,2024-036T,2024-03-15T04:00:00.999936,15.43830811,0.0001033,53.1599,202.0804,73.9811,341.4798,0,U,59015,999,442,0.0012715,0.00058558,0
STARLINK-31526,2024-036U,2024-03-12T22:00:00.999936,15.67414759,0.0001237,53.1605,211.1047,75.1367,161.8483,0,U,59016,999,410,-0.0176,-0.01708328,0
STARLINK-31406,2024-036V,2024-03-14T22:00:00.999936,15.43814428,0.0001319,53.1596,203.2593,57.8102,51.2666,0,U,59017,999,445,0.00089163,0.0004082,0
