MERAH PUTIH 2           
1 58995U 24035A   24074.90554149 -.00000369  00000+0  00000+0 0  9991
2 58995   0.0447 331.4733 0000468   7.8868 272.5538  1.00274152   321
CE-SAT-IE               
1 58987U 24032A   24075.14805055  .00000667  00000+0  12874-3 0  9997
2 58987  98.1143 132.2651 0003285 150.6703 209.4686 14.66601106  3970
2024-032B               
1 58988U 24032B   24052.42760889  .00014389  00000+0  25736-2 0  9995
2 58988  98.1200 109.7876 0001717 268.0294  92.0713 14.66967822   648
2024-032C               
1 58989U 24032C   24075.19262217  .00001707  00000+0  30688-3 0  9990
2 58989  98.1104 132.3480 0004481 243.9107 116.1637 14.67909034  3986
INSAT-3DS               
1 58990U 24033A   24074.75694444 -.00000175  00000+0  00000+0 0  9995
2 58990   0.0971  88.7015 0010373 355.3499  84.2986  1.00271132    27
GSLV R/B                
1 58991U 24033B   24074.89509297  .00039297  35843-6  79642-3 0  9990
2 58991  19.2690 263.4560 7426472 195.8652 112.8353  2.14580176   563
ADRAS-J                 
1 58992U 24034A   24075.18712620  .00007423  00000+0  59528-3 0  9998
2 58992  98.2035  44.0528 0051076   4.5229 355.6443 14.99395891  3838
ELECTRON KICK STAGE R/B 
1 58993U 24034B   24074.90174561  .00015111  00000+0  11295-2 0  9995
2 58993  98.2090  43.8221 0044793   2.7194 357.4264 15.02082455  3796
FALCON 9 R/B            
1 58996U 24035B   24074.51967988  .00000626  00000+0  13356-2 0  9994
2 58996  20.5638 285.1843 8031735 187.6308 139.1029  1.38531105   309
AAC-AIS-SAT3            
1 58997U 23174DJ  24074.78475368  .00002429  00000+0  37953-3 0  9996
2 58997  97.7270 148.4844 0008645 128.3024 231.8964 14.73647825 19222
STARLINK-31468          
1 58998U 24036A   24074.84564458 -.01092223  00000+0 -34889-1 0  9998
2 58998  53.1593 203.7444 0001662 142.1637 217.9483 15.34757299  4370
STARLINK-31440          
1 58999U 24036B   24075.16667824 -.02175736  00000+0 -76382-1 0  9992
2 58999  53.1594 202.2418 0001593 114.7968 220.1677 15.32434484  4155
STARLINK-31529          
1 59000U 24036C   24074.91667824 -.02209526  00000+0 -70552-1 0  9996
2 59000  53.1589 203.3795 0001205  65.5749 343.7680 15.35458518  4381
STARLINK-31525          
1 59001U 24036D   24072.91667824 -.01347053  00000+0 -32056-1 0  9999
2 59001  53.1596 212.8068 0001160  94.7758  21.4747 15.44277784  4087
STARLINK-31431          
1 59002U 24036E   24074.94803225 -.00241076  00000+0 -54562-2 0  9996
2 59002  53.1607 202.9614 0001286 109.5496 250.5650 15.43487469  4407
STARLINK-31429          
1 59003U 24036F   24073.25001157 -.00934630  00000+0 -21879-1 0  9993
2 59003  53.1594 211.2161 0001266 108.7297  65.0461 15.44169118  4207
STARLINK-31435          
1 59004U 24036G   24075.16667824 -.02179401  00000+0 -64230-1 0  9992
2 59004  53.1595 202.1502 0000775  93.6913 287.0343 15.37877502  4433
STARLINK-31484          
1 59005U 24036H   24075.16667824 -.02179318  00000+0 -64244-1 0  9995
2 59005  53.1595 202.1463 0000628  87.2813 295.3287 15.37870681  4480
STARLINK-31450          
1 59006U 24036J   24075.16667824 -.02184073  00000+0 -60655-1 0  9992
2 59006  53.1596 202.1243 0000889  96.5345 296.9410 15.39684765  4427
STARLINK-31456          
1 59007U 24036K   24074.83334491 -.02133320  00000+0 -57167-1 0  9990
2 59007  53.1595 203.7032 0000938  65.8227 276.1431 15.41261694  4375
STARLINK-31460          
1 59008U 24036L   24074.94850274  .00101996  00000+0  21958-2 0  9995
2 59008  53.1606 202.9629 0001371  76.8451 283.2709 15.43827210  4400
STARLINK-31488          
1 59009U 24036M   24074.91667824 -.02009755  00000+0 -51187-1 0  9990
2 59009  53.1594 203.2916 0001192  86.7743   6.4965 15.42540573  4441
STARLINK-31528          
1 59010U 24036N   24075.16667824 -.02160914  00000+0 -54105-1 0  9998
2 59010  53.1597 202.0957 0001201  84.7664 322.9135 15.43316600  4425
STARLINK-31491          
1 59011U 24036P   24075.16667824 -.02224674  00000+0 -54771-1 0  9992
2 59011  53.1597 202.1001 0001321  84.7959 320.9836 15.43327433  4429
STARLINK-31465          
1 59012U 24036Q   24075.16667824 -.00946944  00000+0 -22174-1 0  9994
2 59012  53.1598 202.0924 0001214  74.9683 334.6727 15.44194708  4429
STARLINK-31389          
1 59013U 24036R   24075.16667824 -.00931243  00000+0 -21784-1 0  9997
2 59013  53.1600 202.0883 0000952  75.2267 336.3360 15.44182959  4470
STARLINK-31454          
1 59014U 24036S   24074.91667824 -.00008657  00000+0 -17891-3 0  9990
2 59014  53.1595 203.2713 0001367  76.2500  27.0257 15.43868332  4442
STARLINK-31521          
1 59015U 24036T   24075.16667824  .00058558  00000+0  12715-2 0  9991
2 59015  53.1599 202.0804 0001033  73.9811 341.4798 15.43830811  4426
STARLINK-31526          
1 59016U 24036U   24072.91667824 -.01708328  00000+0 -17600-1 0  9999
2 59016  53.1605 211.1047 0001237  75.1367 161.8483 15.67414759  4106
STARLINK-31406          
1 59017U 24036V   24074.91667824  .00040820  00000+0  89163-3 0  9990
2 59017  53.1596 203.2593 0001319  57.8102  51.2666 15.43814428  4453
